NORAD_CAT_ID,OBJECT_NAME,OBJECT_TYPE,EPOCH,MEAN_MOTION,ECCENTRICITY,INCLINATION,RA_OF_ASC_NODE,ARG_OF_PERICENTER,MEAN_ANOMALY,BSTAR,MEAN_MOTION_DOT,MEAN_MOTION_DDOT,TLE_LINE0,TLE_LINE1,TLE_LINE2,SEMIMAJOR_AXIS,PERIOD,APOGEE,PERIGEE,DECAYED
49169.0,STARLINK-3046,PAYLOAD,2022-02-19 14:00:01,15.28264283,0.0003194,69.9997,44.004,275.2581,330.9809,-0.025851,-0.00662591,0.0,0 STARLINK-3046,1 49169U 21082AR  22050.58334491 -.00662591  00000-0 -25851-1 0  9991,2 49169  69.9997  44.0040 0003194 275.2581 330.9809 15.28264283  3656,6859.138000000001,94.225,483.194,478.812,0.0
49169.0,STARLINK-3046,PAYLOAD,2022-02-19 22:00:00,15.27795526,0.0003343,70.0001,43.1249,281.1968,358.1374,-0.026132,-0.00660435,0.0,0 STARLINK-3046,1 49169U 21082AR  22050.91667824 -.00660435  00000-0 -26132-1 0  9995,2 49169  70.0001  43.1249 0003343 281.1968 358.1374 15.27795526  3632,6860.541,94.253,484.699,480.112,0.0
49169.0,STARLINK-3046,PAYLOAD,2022-02-20 06:00:00,15.27326901,0.0003415,69.9999,42.2465,284.2873,27.5816,-0.02642,-0.00658393,0.0,0 STARLINK-3046,1 49169U 21082AR  22051.25001157 -.00658393  00000-0 -26420-1 0  9994,2 49169  69.9999  42.2465 0003415 284.2873  27.5816 15.27326901 26229,6861.944,94.282,486.152,481.466,0.0
49169.0,STARLINK-3046,PAYLOAD,2022-02-20 14:00:01,15.26861848,0.0003356,69.9998,41.3685,276.8198,67.02199999999999,-0.026985,-0.00662687,0.0,0 STARLINK-3046,1 49169U 21082AR  22051.58334491 -.00662687  00000-0 -26985-1 0  9997,2 49169  69.9998  41.3685 0003356 276.8198  67.0220 15.26861848  3645,6863.337,94.311,487.506,482.899,0.0
49169.0,STARLINK-3046,PAYLOAD,2022-02-20 22:00:00,15.26391548,0.0003469,70.0001,40.4914,281.8895,93.3661,-0.027152,-0.00657725,0.0,0 STARLINK-3046,1 49169U 21082AR  22051.91667824 -.00657725  00000-0 -27152-1 0  9997,2 49169  70.0001  40.4914 0003469 281.8895  93.3661 15.26391548  3650,6864.746999999999,94.34,488.99300000000005,484.231,0.0
49169.0,STARLINK-3046,PAYLOAD,2022-02-21 14:00:01,15.25458361,0.0003368,69.9998,38.7388,277.2136,159.1854,-0.028058,-0.00660539,0.0,0 STARLINK-3046,1 49169U 21082AR  22052.58334491 -.00660539  00000-0 -28058-1 0  9995,2 49169  69.9998  38.7388 0003368 277.2136 159.1854 15.25458361 26423,6867.545999999999,94.398,491.724,487.098,0.0
49169.0,STARLINK-3046,PAYLOAD,2022-02-21 22:00:00,15.24990025,0.0003505,70.0001,37.8635,286.7065,179.4238,-0.028387,-0.00659061,0.0,0 STARLINK-3046,1 49169U 21082AR  22052.91667824 -.00659061  00000-0 -28387-1 0  9994,2 49169  70.0001  37.8635 0003505 286.7065 179.4238 15.24990025  3653,6868.9519999999975,94.427,493.225,488.41,0.0
49169.0,STARLINK-3046,PAYLOAD,2022-02-22 14:00:01,15.24055656,0.0003243,69.9997,36.1146,279.6586,244.2518,-0.029237,-0.0065994,0.0,0 STARLINK-3046,1 49169U 21082AR  22053.58334491 -.00659940  00000-0 -29237-1 0  9990,2 49169  69.9997  36.1146 0003243 279.6586 244.2518 15.24055656  3644,6871.76,94.485,495.853,491.396,0.0
49169.0,STARLINK-3046,PAYLOAD,2022-02-22 22:00:00,15.23588538,0.0003311,70.0001,35.2413,284.3977,267.5615,-0.029666,-0.00660331,0.0,0 STARLINK-3046,1 49169U 21082AR  22053.91667824 -.00660331  00000-0 -29666-1 0  9998,2 49169  70.0001  35.2413 0003311 284.3977 267.5615 15.23588538 26632,6873.1640000000025,94.514,497.305,492.753,0.0
49169.0,STARLINK-3046,PAYLOAD,2022-02-23 14:00:01,15.22653695,0.0003217,69.9998,33.4961,277.9988,328.3771,-0.030543,-0.00661141,0.0,0 STARLINK-3046,1 49169U 21082AR  22054.58334491 -.00661141  00000-0 -30543-1 0  9999,2 49169  69.9998  33.4961 0003217 277.9988 328.3771 15.22653695  3659,6875.977,94.572,500.054,495.63,0.0
49169.0,STARLINK-3046,PAYLOAD,2022-02-23 22:00:00,15.22185432,0.0003268,70.0001,32.6245,280.7074,352.0357,-0.030865,-0.00659076,0.0,0 STARLINK-3046,1 49169U 21082AR  22054.91667824 -.00659076  00000-0 -30865-1 0  9996,2 49169  70.0001  32.6245 0003268 280.7074 352.0357 15.22185432  3650,6877.387,94.601,501.5,497.005,0.0
49169.0,STARLINK-3046,PAYLOAD,2022-02-24 06:00:00,15.21716841,0.0003339,70.0002,31.7536,282.5209,16.0294,-0.03123,-0.00657812,0.0,0 STARLINK-3046,1 49169U 21082AR  22055.25001157 -.00657812  00000-0 -31230-1 0  9998,2 49169  70.0002  31.7536 0003339 282.5209  16.0294 15.21716841 26838,6878.799,94.63,502.961,498.367,0.0
49169.0,STARLINK-3046,PAYLOAD,2022-02-24 14:00:01,15.21251287,0.0003311,69.9998,30.8832,276.4349,47.3609,-0.031856,-0.00661571,0.0,0 STARLINK-3046,1 49169U 21082AR  22055.58334491 -.00661571  00000-0 -31856-1 0  9995,2 49169  69.9998  30.8832 0003311 276.4349  47.3609 15.21251287  3633,6880.2019999999975,94.659,504.345,499.789,0.0
49169.0,STARLINK-3046,PAYLOAD,2022-02-24 22:00:00,15.20782069,0.0003438,70.0002,30.0136,282.3926,66.0887,-0.03209,-0.00657627,0.0,0 STARLINK-3046,1 49169U 21082AR  22055.91667824 -.00657627  00000-0 -32090-1 0  9999,2 49169  70.0002  30.0136 0003438 282.3926  66.0887 15.20782069  3629,6881.6169999999975,94.688,505.848,501.116,0.0
49169.0,STARLINK-3046,PAYLOAD,2022-02-25 14:00:01,15.19848509,0.0003358,69.9999,28.2759,277.1626,119.0075,-0.033161,-0.00661,0.0,0 STARLINK-3046,1 49169U 21082AR  22056.58334491 -.00661000  00000-0 -33161-1 0  9994,2 49169  69.9999  28.2759 0003358 277.1626 119.0075 15.19848509 27030,6884.435,94.746,508.612,503.98800000000006,0.0
49169.0,STARLINK-3046,PAYLOAD,2022-02-25 22:00:00,15.1937936,0.0003488,70.0001,27.4081,284.8829,134.2908,-0.033412,-0.00657265,0.0,0 STARLINK-3046,1 49169U 21082AR  22056.91667824 -.00657265  00000-0 -33412-1 0  9997,2 49169  70.0001  27.4081 0003488 284.8829 134.2908 15.19379360  3649,6885.852,94.776,510.119,505.315,0.0
49169.0,STARLINK-3046,PAYLOAD,2022-02-26 14:00:01,15.18445664,0.0003292,69.9998,25.6743,276.4775,187.0209,-0.034484,-0.00667118,0.0,0 STARLINK-3046,1 49169U 21082AR  22057.58334491 -.00667118  00000-0 -34484-1 0  9990,2 49169  69.9998  25.6743 0003292 276.4775 187.0209 15.18445664  3646,6888.675,94.834,512.807,508.272,0.0
49169.0,STARLINK-3046,PAYLOAD,2022-02-26 22:00:00,15.17977335,0.0003392,70.0002,24.8083,285.9777,198.8423,-0.034828,-0.00664881,0.0,0 STARLINK-3046,1 49169U 21082AR  22057.91667824 -.00664881  00000-0 -34828-1 0  9992,2 49169  70.0002  24.8083 0003392 285.9777 198.8423 15.17977335 27234,6890.090999999999,94.863,514.294,509.619,0.0
49169.0,STARLINK-3046,PAYLOAD,2022-02-27 14:00:01,15.17043341,0.0003179,69.9997,23.0782,275.408,250.373,-0.035906,-0.00667116,0.0,0 STARLINK-3046,1 49169U 21082AR  22058.58334491 -.00667116  00000-0 -35906-1 0  9999,2 49169  69.9997  23.0782 0003179 275.4080 250.3730 15.17043341  3640,6892.919,94.921,516.975,512.5930000000002,0.0
49169.0,STARLINK-3046,PAYLOAD,2022-02-27 22:00:00,15.16575233,0.0003232,70.0002,22.2141,281.8485,263.5719,-0.036278,-0.00665181,0.0,0 STARLINK-3046,1 49169U 21082AR  22058.91667824 -.00665181  00000-0 -36278-1 0  9998,2 49169  70.0002  22.2141 0003232 281.8485 263.5719 15.16575233  3642,6894.337,94.951,518.431,513.974,0.0
49169.0,STARLINK-3046,PAYLOAD,2022-02-28 06:00:00,15.16106588,0.0003158,70.0,21.3506,278.909,285.5911,-0.036692,-0.00663897,0.0,0 STARLINK-3046,1 49169U 21082AR  22059.25001157 -.00663897  00000-0 -36692-1 0  9999,2 49169  70.0000  21.3506 0003158 278.9090 285.5911 15.16106588 27446,6895.7580000000025,94.98,519.8009999999998,515.445,0.0
49169.0,STARLINK-3046,PAYLOAD,2022-02-28 14:00:01,15.15640942,0.0003114,69.9998,20.4876,273.0234,309.9945,-0.037382,-0.00667239,0.0,0 STARLINK-3046,1 49169U 21082AR  22059.58334491 -.00667239  00000-0 -37382-1 0  9996,2 49169  69.9998  20.4876 0003114 273.0234 309.9945 15.15640942  3647,6897.17,95.009,521.183,516.888,0.0
49169.0,STARLINK-3046,PAYLOAD,2022-02-28 22:00:00,15.15172774,0.0003256,70.0001,19.6255,283.062,317.9135,-0.037736,-0.00664828,0.0,0 STARLINK-3046,1 49169U 21082AR  22059.91667824 -.00664828  00000-0 -37736-1 0  9996,2 49169  70.0001  19.6255 0003256 283.0620 317.9135 15.15172774  3635,6898.590999999999,95.039,522.702,518.21,0.0
49169.0,STARLINK-3046,PAYLOAD,2022-03-01 14:00:01,15.14238465,0.0003156,69.9999,17.9028,271.3861,3.8232,-0.038911,-0.00667444,0.0,0 STARLINK-3046,1 49169U 21082AR  22060.58334491 -.00667444  00000-0 -38911-1 0  9995,2 49169  69.9999  17.9028 0003156 271.3861   3.8232 15.14238465 27648,6901.428000000001,95.097,525.472,521.115,0.0
49169.0,STARLINK-3046,PAYLOAD,2022-03-01 22:00:01,15.13770207,0.0003253,70.0002,17.0424,278.8712,12.6767,-0.039249,-0.00664606,0.0,0 STARLINK-3046,1 49169U 21082AR  22060.91668981 -.00664606  00000-0 -39249-1 0  9998,2 49169  70.0002  17.0424 0003253 278.8712  12.6767 15.13770207  3641,6902.852,95.127,526.962,522.471,0.0
49169.0,STARLINK-3046,PAYLOAD,2022-03-02 14:00:01,15.12835585,0.0003238,69.9999,15.3235,270.2273,52.1277,-0.040447,-0.00666979,0.0,0 STARLINK-3046,1 49169U 21082AR  22061.58334491 -.00666979  00000-0 -40447-1 0  9995,2 49169  69.9999  15.3235 0003238 270.2273  52.1277 15.12835585  3617,6905.694,95.185,529.795,525.323,0.0
49169.0,STARLINK-3046,PAYLOAD,2022-03-02 22:00:00,15.12367435,0.0003307,70.0002,14.465,277.7899,59.1587,-0.0408,-0.0066423,0.0,0 STARLINK-3046,1 49169U 21082AR  22061.91667824 -.00664230  00000-0 -40800-1 0  9992,2 49169  70.0002  14.4650 0003307 277.7899  59.1587 15.12367435 27845,6907.119000000002,95.215,531.269,526.7,0.0
49169.0,STARLINK-3046,PAYLOAD,2022-03-03 14:00:01,15.11432563,0.0003283,69.9999,12.7498,272.2877,92.1672,-0.042008,-0.00666165,0.0,0 STARLINK-3046,1 49169U 21082AR  22062.58334491 -.00666165  00000-0 -42008-1 0  9998,2 49169  69.9999  12.7498 0003283 272.2877  92.1672 15.11432563  3634,6909.967,95.274,534.101,529.564,0.0
49169.0,STARLINK-3046,PAYLOAD,2022-03-03 22:00:00,15.10964767,0.0003394,70.0002,11.8931,281.2911,96.0756,-0.042421,-0.00664174,0.0,0 STARLINK-3046,1 49169U 21082AR  22062.91667824 -.00664174  00000-0 -42421-1 0  9991,2 49169  70.0002  11.8931 0003394 281.2911  96.0756 15.10964767  3626,6911.393,95.303,535.604,530.913,0.0
